OBJECT_NAME,OBJECT_ID,EPOCH,MEAN_MOTION,ECCENTRICITY,INCLINATION,RA_OF_ASC_NODE,ARG_OF_PERICENTER,MEAN_ANOMALY,EPHEMERIS_TYPE,CLASSIFICATION_TYPE,NORAD_CAT_ID,ELEMENT_SET_NO,REV_AT_EPOCH,BSTAR,MEAN_MOTION_DOT,MEAN_MOTION_DDOT
SPACEMOBILE-004,2024-163E,2026-07-23T02:44:04.345152,15.20626990,.00052574,52.9731,143.7101,250.7696,109.2730,0,U,61049,999,10323,.96977201E-3,.21285E-3,0
CZ-8A R/B,2025-231K,2026-07-23T10:57:46.106496,14.30164009,.0116538,50.0026,245.0095,351.7055,8.1933,0,U,66004,999,4013,.48577209E-4,-.29E-6,0
SZ-21 MODULE,2025-246C,2026-07-22T23:23:27.454848,15.79442093,.00094943,41.4724,83.9224,269.0433,90.9325,0,U,66515,999,3939,.31977173E-3,.60021E-3,0
SPACEMOBILE-006,2025-309A,2026-07-23T07:19:55.614720,15.18692366,.00094449,52.9955,166.1784,243.3198,116.6829,0,U,67232,999,3208,.15661947E-3,.2971E-4,0
SPACEMOBILE-008,2026-139A,2026-07-23T09:51:49.637952,15.12816135,.0005414,52.9953,98.1065,74.4796,285.6792,0,U,69589,999,546,.52701549E-4,.635E-5,0
SPACEMOBILE-009,2026-139B,2026-07-23T09:55:28.079616,15.12716576,.00055913,52.9945,98.1165,72.4156,287.7445,0,U,69590,999,546,.89219253E-4,.128E-4,0
SPACEMOBILE-010,2026-139C,2026-07-23T10:01:13.894752,15.12553810,.00056271,52.9950,98.1442,64.9779,295.1795,0,U,69591,999,547,.93061719E-4,.1341E-4,0
